{
  "type": "FeatureCollection",
  "features": [
    {
      "type": "Feature",
      "geometry": { "type": "Point", "coordinates": [88.60, 55.90] },
      "properties": {
        "title": "Выход из Щегловской тайги (д. Золотая Горка)",
        "category": "battle",
        "year": 1919,
        "month": 12,
        "description": "После многодневного перехода через Щегловскую (Мариинскую) тайгу части 3-й армии вышли к первым населённым пунктам. Брошена почти вся артиллерия, много обмороженных.\n\n**Участники:** 3-я армия, Ижевская и Уральская дивизии\n\n**Источник:** А.Г. Ефимов «Ижевцы и воткинцы», 1974; Ф.А. Пучков «8-я Камская дивизия в Сибирском Ледяном походе», 1965–1966."
      }
    },
    {
      "type": "Feature",
      "geometry": { "type": "Point", "coordinates": [88.50, 55.95] },
      "properties": {
        "title": "Сбор у д. Красный Яр",
        "category": "battle",
        "year": 1919,
        "month": 12,
        "description": "После выхода из тайги войска сделали остановку. Здесь 8-я дивизия остановилась на большой привал.\n\n**Участники:** 3-я армия, Уфимская группа\n\n**Источник:** А.Г. Ефимов (1974); Ф.А. Пучков (1965–1966)."
      }
    },
    {
      "type": "Feature",
      "geometry": { "type": "Point", "coordinates": [88.10, 55.85] },
      "properties": {
        "title": "Гибель 7-й Уральской дивизии у д. Дмитриевка",
        "category": "battle",
        "year": 1919,
        "month": 12,
        "description": "7-я Уральская горных стрелков дивизия, прикрывавшая отход 3-й армии в Щегловской тайге, была почти полностью уничтожена. Оставлена большая часть артиллерии.\n\n**Участники:** 7-я Уральская горных стрелков дивизия (полковник Бондарев)\n\n**Источник:** А.Г. Ефимов (1974)."
      }
    },
    {
      "type": "Feature",
      "geometry": { "type": "Point", "coordinates": [90.50, 56.28] },
      "properties": {
        "title": "Взрыв на ст. Ачинск",
        "category": "battle",
        "year": 1919,
        "month": 12,
        "description": "На станции произошёл взрыв вагонов с порохом, уничтоживший несколько эшелонов и вокзал. Груды искалеченных тел были сложены в пирамиды на перроне.\n\n**Участники:** Штаб Каппеля, тыловые части, беженцы\n\n**Источник:** В.О. Вырыпаев «Каппелевцы», 1964; Г.И. Клерже «Ледяной поход», 1932."
      }
    },
    {
      "type": "Feature",
      "geometry": { "type": "Point", "coordinates": [91.00, 56.20] },
      "properties": {
        "title": "Ночлег в д. Козулинское",
        "category": "battle",
        "year": 1920,
        "month": 1,
        "description": "8-я Камская дивизия провела ночь в переполненной обозами деревне.\n\n**Участники:** 8-я Камская дивизия (генерал-майор Ф.А. Пучков)\n\n**Источник:** Ф.А. Пучков (1965–1966)."
      }
    },
    {
      "type": "Feature",
      "geometry": { "type": "Point", "coordinates": [91.05, 56.22] },
      "properties": {
        "title": "Ночлег в д. Чернореченское",
        "category": "battle",
        "year": 1920,
        "month": 1,
        "description": "Вторая часть ночлега 8-й дивизии.\n\n**Участники:** 8-я Камская дивизия\n\n**Источник:** Ф.А. Пучков (1965–1966)."
      }
    },
    {
      "type": "Feature",
      "geometry": { "type": "Point", "coordinates": [91.68, 56.10] },
      "properties": {
        "title": "Ночлег на ст. Кемчуг; самоубийство ген. Мамаева",
        "category": "battle",
        "year": 1920,
        "month": 1,
        "description": "Штаб 8-й Камской дивизии ночевал на станции Кемчуг. Утром 4 января генерал-майор Ю.И. Мамаев застрелился, не вынеся гибели своей бригады.\n\n**Участники:** 8-я Камская дивизия\n\n**Источник:** Ф.А. Пучков (1965–1966)."
      }
    },
    {
      "type": "Feature",
      "geometry": { "type": "Point", "coordinates": [92.10, 56.02] },
      "properties": {
        "title": "Ночлег на ст. Кача",
        "category": "battle",
        "year": 1920,
        "month": 1,
        "description": "Посёлок при станции Кача был забит войсками и беженцами. Многие ночевали у костров.\n\n**Участники:** 4-я Уфимская, 8-я Камская дивизии, штаб 2-й армии\n\n**Источник:** П.П. Петров «От Волги до Тихого океана в рядах белых», 1923; Ф.А. Пучков (1965–1966)."
      }
    },
    {
      "type": "Feature",
      "geometry": { "type": "Point", "coordinates": [92.42, 56.01] },
      "properties": {
        "title": "Разъезд Минино – переход штабов на сани",
        "category": "battle",
        "year": 1920,
        "month": 1,
        "description": "Последняя железнодорожная остановка перед Красноярском. Здесь штабы покинули поезда и пересели на сани.\n\n**Участники:** Штаб Каппеля, штаб 2-й армии, 4-я Уфимская дивизия\n\n**Источник:** П.П. Петров (1923); Ф.А. Пучков (1965–1966)."
      }
    },
    {
      "type": "Feature",
      "geometry": { "type": "Point", "coordinates": [92.85, 56.01] },
      "properties": {
        "title": "Неудачный штурм Красноярска",
        "category": "battle",
        "year": 1920,
        "month": 1,
        "description": "Лобовая атака 2-й армии на город, занятый красными. Из-за паники атака захлебнулась. Запасной батальон ижевцев потерял 300 человек из 680.\n\n**Участники:** 4-я Уфимская, 8-я Камская дивизии, Ижевский запасной батальон\n\n**Источник:** П.П. Петров (1923); Ф.А. Пучков (1965–1966); А.Г. Ефимов (1974)."
      }
    },
    {
      "type": "Feature",
      "geometry": { "type": "Point", "coordinates": [92.80, 56.13] },
      "properties": {
        "title": "Арьергардный бой у д. Дрокино",
        "category": "battle",
        "year": 1920,
        "month": 1,
        "description": "8-я Камская дивизия прикрывала отход главных сил севернее Красноярска. Камцы понесли тяжёлые потери, но обеспечили прорыв.\n\n**Участники:** 8-я Камская дивизия (генерал-майор Ф.А. Пучков)\n\n**Источник:** Ф.А. Пучков (1965–1966); А.Г. Ефимов (1974)."
      }
    },
    {
      "type": "Feature",
      "geometry": { "type": "Point", "coordinates": [92.95, 56.22] },
      "properties": {
        "title": "Сборный пункт у д. Темерино",
        "category": "battle",
        "year": 1920,
        "month": 1,
        "description": "После боя у Дрокино части 2-й армии собрались в Темерино.\n\n**Участники:** 8-я Камская, 4-я Уфимская дивизии\n\n**Источник:** А.Г. Ефимов (1974)."
      }
    },
    {
      "type": "Feature",
      "geometry": { "type": "Point", "coordinates": [93.10, 56.25] },
      "properties": {
        "title": "Ночлег в д. Чистоостровское (Рождество)",
        "category": "battle",
        "year": 1920,
        "month": 1,
        "description": "Рождественская ночь в богатом селе на Енисее. Крестьяне гостеприимно встретили войска.\n\n**Участники:** Ижевская дивизия, 4-я Уфимская дивизия\n\n**Источник:** П.П. Петров (1923); А.Г. Ефимов (1974)."
      }
    },
    {
      "type": "Feature",
      "geometry": { "type": "Point", "coordinates": [93.60, 56.45] },
      "properties": {
        "title": "Начало перехода по р. Кан (д. Подпорожная)",
        "category": "battle",
        "year": 1920,
        "month": 1,
        "description": "У устья реки Кан начался легендарный 90‑вёрстный переход по руслу горной реки. Мороз достигал −35 °C.\n\n**Участники:** Все части 2-й и 3-й армий\n\n**Источник:** П.П. Петров (1923); А.Г. Ефимов (1974); В. Варженский «Великий Сибирский Ледяной поход», 1971."
      }
    },
    {
      "type": "Feature",
      "geometry": { "type": "Point", "coordinates": [93.80, 56.30] },
      "properties": {
        "title": "Каппель провалился под лёд на р. Кан",
        "category": "battle",
        "year": 1920,
        "month": 1,
        "description": "Генерал Каппель, шедший в голове колонны, провалился в полынью. Обморожение ног привело к пневмонии и смерти 26 января.\n\n**Участники:** Штаб Каппеля\n\n**Источник:** В.О. Вырыпаев (1964); П.П. Петров (1923)."
      }
    },
    {
      "type": "Feature",
      "geometry": { "type": "Point", "coordinates": [95.00, 56.22] },
      "properties": {
        "title": "д. Барга – конец перехода; ампутация Каппелю",
        "category": "battle",
        "year": 1920,
        "month": 1,
        "description": "В Барге Каппелю без наркоза ампутировали обмороженные пальцы и пятки.\n\n**Участники:** Все части\n\n**Источник:** А.Г. Ефимов (1974); В. Варженский (1971)."
      }
    },
    {
      "type": "Feature",
      "geometry": { "type": "Point", "coordinates": [95.70, 56.20] },
      "properties": {
        "title": "Бои у Канска и «западня» в Голопуповке",
        "category": "battle",
        "year": 1920,
        "month": 1,
        "description": "Попытка лобового штурма Канска была отбита. Части 3-й армии три дня провели в окружении у Голопуповки, пока красные не ушли.\n\n**Участники:** Колонна Вержбицкого, Ижевская дивизия, 3-й Барнаульский полк\n\n**Источник:** А.Г. Ефимов (1974); А.И. Камбалин «3-й Барнаульский полк…», 1997–1998."
      }
    },
    {
      "type": "Feature",
      "geometry": { "type": "Point", "coordinates": [95.60, 56.05] },
      "properties": {
        "title": "Бой за д. Бражное",
        "category": "battle",
        "year": 1920,
        "month": 1,
        "description": "Конная атака Ижевского полка и Уральской группы выбила красных из села.\n\n**Участники:** Ижевский конный полк (подполковник А.Г. Ефимов), Уральская группа генерала Круглевского\n\n**Источник:** А.Г. Ефимов (1974); Д.И. Решетников «Красноуфимский артдивизион…», 1985."
      }
    },
    {
      "type": "Feature",
      "geometry": { "type": "Point", "coordinates": [95.10, 55.90] },
      "properties": {
        "title": "Прорыв у д. Аманаш",
        "category": "battle",
        "year": 1920,
        "month": 1,
        "description": "Сводная колонна генерала К.В. Сахарова, отходившая от Голопуповки, прорвалась через занятую красными деревню обходным манёвром.\n\n**Участники:** Остатки 1-й кавалерийской дивизии, Енисейская казачья бригада, Красноуфимский артдивизион\n\n**Источник:** Д.И. Решетников (1985); П.П. Петров (1923)."
      }
    },
    {
      "type": "Feature",
      "geometry": { "type": "Point", "coordinates": [93.50, 57.00] },
      "properties": {
        "title": "Бой за с. Яковлево (Северная колонна)",
        "category": "battle",
        "year": 1920,
        "month": 1,
        "description": "Северная колонна штурмом взяла укреплённое красными село на реке Усолке. Победа достигнута глубоким обходом.\n\n**Участники:** 3-й Барнаульский Сибирский стрелковый полк (полковник А.И. Камбалин), 11-й Оренбургский казачий полк\n\n**Источник:** А.И. Камбалин (1997–1998); С.В. Марков «Пятьдесят лет тому назад», 1972."
      }
    },
    {
      "type": "Feature",
      "geometry": { "type": "Point", "coordinates": [92.80, 56.13] },
      "properties": {
        "title": "Гибель младшего брата В. Варженского",
        "category": "memorial",
        "year": 1920,
        "month": 1,
        "description": "При ночном прорыве у Красноярска В. Варженский потерял младшего брата.\n\n**Участники:** Чердынский полк (62-й Сибирский стрелковый)\n\n**Источник:** В. Варженский (1971)."
      }
    },
    {
      "type": "Feature",
      "geometry": { "type": "Point", "coordinates": [92.01, 56.02] },
      "properties": {
        "title": "Ночлег у д. Бугач",
        "category": "battle",
        "year": 1920,
        "month": 1,
        "description": "4-я Уфимская дивизия и 2-я Уфимская кавалерийская дивизия ночевали в Бугаче перед штурмом Красноярска.\n\n**Участники:** 4-я Уфимская дивизия (генерал-майор П.П. Петров), 2-я кавдивизия\n\n**Источник:** П.П. Петров (1923)."
      }
    },
    {
      "type": "Feature",
      "geometry": { "type": "Point", "coordinates": [95.40, 56.05] },
      "properties": {
        "title": "Ночлег в д. Филипповка (Высотина)",
        "category": "battle",
        "year": 1920,
        "month": 1,
        "description": "8-я Камская дивизия после выхода из д. Барги заночевала в Филипповке.\n\n**Участники:** 8-я Камская дивизия\n\n**Источник:** Ф.А. Пучков (1965–1966)."
      }
    },
    {
      "type": "Feature",
      "geometry": { "type": "Point", "coordinates": [95.90, 56.10] },
      "properties": {
        "title": "Дневка в д. Александровка",
        "category": "battle",
        "year": 1920,
        "month": 1,
        "description": "Первая полноценная дневка за два месяца. Большинство людей получило баню.\n\n**Участники:** Уфимская группа (4-я, 8-я, 12-я дивизии)\n\n**Источник:** Ф.А. Пучков (1965–1966)."
      }
    },
    {
      "type": "Feature",
      "geometry": { "type": "Point", "coordinates": [92.60, 56.08] },
      "properties": {
        "title": "Стоянка колонны Вержбицкого в д. Зеледеево",
        "category": "battle",
        "year": 1920,
        "month": 1,
        "description": "Колонна генерала Вержбицкого весь день 5 января простояла в Зеледеево и не оказала помощи штурмующим Красноярск, уйдя на север.\n\n**Участники:** Тобольская и Южная группы, Воткинская дивизия\n\n**Источник:** П.П. Петров (1923); А.Г. Ефимов (1974)."
      }
    },
    {
      "type": "Feature",
      "geometry": { "type": "LineString", "coordinates": [
        [90.50, 56.28], [91.00, 56.20], [91.05, 56.22], [91.68, 56.10],
        [92.10, 56.02], [92.42, 56.01], [92.80, 56.13], [92.95, 56.22],
        [93.10, 56.25], [93.60, 56.45], [95.00, 56.22], [95.70, 56.20],
        [95.60, 56.05], [95.90, 55.90], [96.00, 55.85]
      ] },
      "properties": {
        "title": "Маршрут 4-й Уфимской стрелковой дивизии",
        "category": "route",
        "year": 1920,
        "month": 1,
        "description": "Путь от Ачинска вдоль ж/д до Красноярска, обход города, переход по р. Кан, бои у Канска.\n\n**Командующий:** Генерал-майор П.П. Петров\n\n**Источник:** П.П. Петров (1923)."
      }
    },
    {
      "type": "Feature",
      "geometry": { "type": "LineString", "coordinates": [
        [90.50, 56.28], [91.00, 56.20], [91.05, 56.22], [91.68, 56.10],
        [92.10, 56.02], [92.42, 56.01], [92.80, 56.13], [92.95, 56.22],
        [93.10, 56.25], [93.60, 56.45], [95.00, 56.22], [95.40, 56.05],
        [95.70, 56.20], [95.60, 56.05], [95.90, 55.90], [96.00, 55.85]
      ] },
      "properties": {
        "title": "Маршрут 8-й Камской стрелковой дивизии",
        "category": "route",
        "year": 1920,
        "month": 1,
        "description": "Аналогичный путь, с арьергардным боем у Дрокино. Включает ночлег в Филипповке.\n\n**Командующий:** Генерал-майор Ф.А. Пучков\n\n**Источник:** Ф.А. Пучков (1965–1966)."
      }
    },
    {
      "type": "Feature",
      "geometry": { "type": "LineString", "coordinates": [
        [92.60, 56.08], [92.85, 56.15], [93.20, 56.30], [93.60, 56.45],
        [95.00, 56.22], [95.70, 56.20]
      ] },
      "properties": {
        "title": "Маршрут колонны генерала Вержбицкого",
        "category": "route",
        "year": 1920,
        "month": 1,
        "description": "Следовала по Сибирскому тракту: Зеледеево – обход Красноярска – р. Кан – бои под Канском.\n\n**Командующий:** Генерал-лейтенант Г.А. Вержбицкий\n\n**Источник:** П.П. Петров (1923); А.Г. Ефимов (1974)."
      }
    },
    {
      "type": "Feature",
      "geometry": { "type": "LineString", "coordinates": [
        [88.60, 55.90], [91.68, 56.10], [92.42, 56.01], [92.85, 56.15],
        [93.10, 56.25], [93.60, 56.45], [95.00, 56.22], [95.70, 56.20],
        [95.60, 56.05]
      ] },
      "properties": {
        "title": "Маршрут Ижевской дивизии и конного полка",
        "category": "route",
        "year": 1920,
        "month": 1,
        "description": "От Щегловской тайги через Красноярск, р. Кан, бои у Голопуповки и Бражного.\n\n**Командующий:** Генерал-майор В.М. Молчанов\n\n**Источник:** А.Г. Ефимов (1974); «Сибирский зимний поход», 1959."
      }
    },
    {
      "type": "Feature",
      "geometry": { "type": "LineString", "coordinates": [
        [88.10, 55.85], [92.42, 56.01], [92.85, 56.15]
      ] },
      "properties": {
        "title": "Остатки 7-й Уральской дивизии",
        "category": "route",
        "year": 1920,
        "month": 1,
        "description": "После разгрома у Дмитриевки жалкие остатки пробивались к Красноярску.\n\n**Командующий:** Полковник Бондарев\n\n**Источник:** А.Г. Ефимов (1974)."
      }
    },
    {
      "type": "Feature",
      "geometry": { "type": "LineString", "coordinates": [
        [92.85, 56.15], [93.60, 56.45], [95.00, 56.22], [95.60, 56.05]
      ] },
      "properties": {
        "title": "Маршрут Уральской группы генерала Круглевского",
        "category": "route",
        "year": 1920,
        "month": 1,
        "description": "Сборные остатки 11-й и 12-й Уральских дивизий: Красноярск – Кан – Бражное.\n\n**Командующий:** Генерал-майор Круглевский\n\n**Источник:** Д.И. Решетников (1985); А.Г. Ефимов (1974)."
      }
    },
    {
      "type": "Feature",
      "geometry": { "type": "LineString", "coordinates": [
        [95.70, 56.20], [95.10, 55.90]
      ] },
      "properties": {
        "title": "Прорыв сводной колонны генерала Сахарова",
        "category": "route",
        "year": 1920,
        "month": 1,
        "description": "Отход от Голопуповки и прорыв у д. Аманаш.\n\n**Командующий:** Генерал-майор К.В. Сахаров\n\n**Источник:** Д.И. Решетников (1985); П.П. Петров (1923)."
      }
    },
    {
      "type": "Feature",
      "geometry": { "type": "LineString", "coordinates": [
        [92.85, 56.15], [93.20, 56.30], [93.50, 56.60], [93.30, 56.90],
        [93.50, 57.00], [93.20, 57.30], [94.00, 58.00]
      ] },
      "properties": {
        "title": "Маршрут Северной колонны (3-й Барнаульский полк)",
        "category": "route",
        "year": 1920,
        "month": 1,
        "description": "Уход на север по Енисею, затем по р. Усолке, бой у Яковлево, выход на Ангару.\n\n**Командующий:** Полковник А.И. Камбалин\n\n**Источник:** А.И. Камбалин (1997–1998); С.В. Марков (1972)."
      }
    },
    {
      "type": "Feature",
      "geometry": { "type": "LineString", "coordinates": [
        [90.50, 56.28], [92.42, 56.01], [93.60, 56.45], [93.80, 56.30],
        [95.00, 56.22]
      ] },
      "properties": {
        "title": "Путь штаба генерала Каппеля",
        "category": "route",
        "year": 1920,
        "month": 1,
        "description": "Перемещение штаба от Ачинска до д. Барга, где Каппелю была сделана операция.\n\n**Источник:** В.О. Вырыпаев (1964); П.П. Петров (1923)."
      }
    }
  ]
}